{
  "type": "FeatureCollection",
  "features": [
    {
      "type": "Feature",
      "properties": {
        "norad_id": 61182,
        "name": "GSAT0232 (GALILEO 32)",
        "group": "gnss",
        "lat": 54.08209738075117,
        "lon": -60.15399358743337,
        "alt_km": 23220.78585559897,
        "timestamp": "2025-12-04T15:47:54.341341+00:00",
        "meta_object_name": "GSAT0232 (GALILEO 32)",
        "meta_object_id": "2024-167A",
        "meta_epoch": "2025-11-29T15:16:36.414048",
        "meta_mean_motion": 1.70473184,
        "meta_eccentricity": 0.00022439,
        "meta_inclination": 55.2459,
        "meta_ra_of_asc_node": 226.7912,
        "meta_arg_of_pericenter": 216.1557,
        "meta_mean_anomaly": 22.2275,
        "meta_ephemeris_type": 0,
        "meta_classification_type": "U",
        "meta_norad_cat_id": 61182,
        "meta_element_set_no": 999,
        "meta_rev_at_epoch": 747,
        "meta_bstar": 0,
        "meta_mean_motion_dot": 2.7e-07,
        "meta_mean_motion_ddot": 0,
        "tle_line1": "1 61182U 24167A   25333.63653257  .00000027  00000+0  00000+0 0  9998",
        "tle_line2": "2 61182  55.2459 226.7912 0002243 216.1557  22.2275  1.70473184  7470"
      },
      "geometry": {
        "type": "Point",
        "coordinates": [
          -60.15399358743337,
          54.08209738075117
        ]
      }
    },
    {
      "type": "Feature",
      "properties": {
        "norad_id": 61183,
        "name": "GSAT0226 (GALILEO 31)",
        "group": "gnss",
        "lat": -10.605332083331778,
        "lon": 54.12367932338606,
        "alt_km": 23222.454420236652,
        "timestamp": "2025-12-04T15:47:54.341352+00:00",
        "meta_object_name": "GSAT0226 (GALILEO 31)",
        "meta_object_id": "2024-167B",
        "meta_epoch": "2025-11-26T08:32:06.516672",
        "meta_mean_motion": 1.70473481,
        "meta_eccentricity": 6.079e-05,
        "meta_inclination": 55.246,
        "meta_ra_of_asc_node": 226.8867,
        "meta_arg_of_pericenter": 154.246,
        "meta_mean_anomaly": 343.2327,
        "meta_ephemeris_type": 0,
        "meta_classification_type": "U",
        "meta_norad_cat_id": 61183,
        "meta_element_set_no": 999,
        "meta_rev_at_epoch": 739,
        "meta_bstar": 0,
        "meta_mean_motion_dot": 3e-07,
        "meta_mean_motion_ddot": 0,
        "tle_line1": "1 61183U 24167B   25330.35563098  .00000030  00000+0  00000+0 0  9992",
        "tle_line2": "2 61183  55.2460 226.8867 0000607 154.2460 343.2327  1.70473481  7395"
      },
      "geometry": {
        "type": "Point",
        "coordinates": [
          54.12367932338606,
          -10.605332083331778
        ]
      }
    },
    {
      "type": "Feature",
      "properties": {
        "norad_id": 61186,
        "name": "BEIDOU-3 M25 (C47)",
        "group": "gnss",
        "lat": 52.53369582285171,
        "lon": 16.764168839097216,
        "alt_km": 21534.23078844137,
        "timestamp": "2025-12-04T15:47:54.341363+00:00",
        "meta_object_name": "BEIDOU-3 M25 (C47)",
        "meta_object_id": "2024-168B",
        "meta_epoch": "2025-12-04T06:41:34.097568",
        "meta_mean_motion": 1.86229712,
        "meta_eccentricity": 0.00055022,
        "meta_inclination": 54.6499,
        "meta_ra_of_asc_node": 309.0133,
        "meta_arg_of_pericenter": 294.1783,
        "meta_mean_anomaly": 248.0837,
        "meta_ephemeris_type": 0,
        "meta_classification_type": "U",
        "meta_norad_cat_id": 61186,
        "meta_element_set_no": 999,
        "meta_rev_at_epoch": 815,
        "meta_bstar": 0,
        "meta_mean_motion_dot": -6.9e-07,
        "meta_mean_motion_ddot": 0,
        "tle_line1": "1 61186U 24168B   25338.27886687 -.00000069  00000+0  00000+0 0  9990",
        "tle_line2": "2 61186  54.6499 309.0133 0005502 294.1783 248.0837  1.86229712  8150"
      },
      "geometry": {
        "type": "Point",
        "coordinates": [
          16.764168839097216,
          52.53369582285171
        ]
      }
    },
    {
      "type": "Feature",
      "properties": {
        "norad_id": 61187,
        "name": "BEIDOU-3 M27 (C49)",
        "group": "gnss",
        "lat": -25.303913390357163,
        "lon": 148.56485581992288,
        "alt_km": 21534.450584580092,
        "timestamp": "2025-12-04T15:47:54.341377+00:00",
        "meta_object_name": "BEIDOU-3 M27 (C49)",
        "meta_object_id": "2024-168C",
        "meta_epoch": "2025-12-04T01:54:08.310240",
        "meta_mean_motion": 1.86229854,
        "meta_eccentricity": 0.00022821,
        "meta_inclination": 54.6454,
        "meta_ra_of_asc_node": 309.0039,
        "meta_arg_of_pericenter": 329.4527,
        "meta_mean_anomaly": 213.9234,
        "meta_ephemeris_type": 0,
        "meta_classification_type": "U",
        "meta_norad_cat_id": 61187,
        "meta_element_set_no": 999,
        "meta_rev_at_epoch": 562,
        "meta_bstar": 0,
        "meta_mean_motion_dot": -6.8e-07,
        "meta_mean_motion_ddot": 0,
        "tle_line1": "1 61187U 24168C   25338.07926285 -.00000068  00000+0  00000+0 0  9997",
        "tle_line2": "2 61187  54.6454 309.0039 0002282 329.4527 213.9234  1.86229854  5625"
      },
      "geometry": {
        "type": "Point",
        "coordinates": [
          148.56485581992288,
          -25.303913390357163
        ]
      }
    },
    {
      "type": "Feature",
      "properties": {
        "norad_id": 62339,
        "name": "GPS BIII-7  (PRN 01)",
        "group": "gnss",
        "lat": -4.287494493013729,
        "lon": 165.08745010250237,
        "alt_km": 20211.579685534318,
        "timestamp": "2025-12-04T15:47:54.341390+00:00",
        "meta_object_name": "GPS BIII-7  (PRN 01)",
        "meta_object_id": "2024-242A",
        "meta_epoch": "2025-12-04T03:38:20.685120",
        "meta_mean_motion": 2.00567235,
        "meta_eccentricity": 0.00117247,
        "meta_inclination": 54.9261,
        "meta_ra_of_asc_node": 342.0885,
        "meta_arg_of_pericenter": 343.4986,
        "meta_mean_anomaly": 195.9397,
        "meta_ephemeris_type": 0,
        "meta_classification_type": "U",
        "meta_norad_cat_id": 62339,
        "meta_element_set_no": 999,
        "meta_rev_at_epoch": 734,
        "meta_bstar": 0,
        "meta_mean_motion_dot": -7.2e-07,
        "meta_mean_motion_ddot": 0,
        "tle_line1": "1 62339U 24242A   25338.15162830 -.00000072  00000+0  00000+0 0  9992",
        "tle_line2": "2 62339  54.9261 342.0885 0011724 343.4986 195.9397  2.00567235  7341"
      },
      "geometry": {
        "type": "Point",
        "coordinates": [
          165.08745010250237,
          -4.287494493013729
        ]
      }
    },
    {
      "type": "Feature",
      "properties": {
        "norad_id": 62850,
        "name": "NVS-02 (IRNSS-1K)",
        "group": "gnss",
        "lat": -17.104926830226876,
        "lon": -156.14188146631838,
        "alt_km": 23222.751211800336,
        "timestamp": "2025-12-04T15:47:54.341402+00:00",
        "meta_object_name": "NVS-02 (IRNSS-1K)",
        "meta_object_id": "2025-020A",
        "meta_epoch": "2025-12-03T19:36:23.012064",
        "meta_mean_motion": 2.17585454,
        "meta_eccentricity": 0.7347946,
        "meta_inclination": 21.0069,
        "meta_ra_of_asc_node": 330.8855,
        "meta_arg_of_pericenter": 20.4476,
        "meta_mean_anomaly": 357.947,
        "meta_ephemeris_type": 0,
        "meta_classification_type": "U",
        "meta_norad_cat_id": 62850,
        "meta_element_set_no": 999,
        "meta_rev_at_epoch": 672,
        "meta_bstar": 0.0005377022,
        "meta_mean_motion_dot": 9.56e-06,
        "meta_mean_motion_ddot": 0,
        "tle_line1": "1 62850U 25020A   25337.81693301  .00000956  00000+0  53770-3 0  9995",
        "tle_line2": "2 62850  21.0069 330.8855 7347946  20.4476 357.9470  2.17585454  6727"
      },
      "geometry": {
        "type": "Point",
        "coordinates": [
          -156.14188146631838,
          -17.104926830226876
        ]
      }
    },
    {
      "type": "Feature",
      "properties": {
        "norad_id": 63130,
        "name": "COSMOS 2584 (704K)",
        "group": "gnss",
        "lat": -17.522879949185068,
        "lon": -92.10775763166922,
        "alt_km": 19113.82376222053,
        "timestamp": "2025-12-04T15:47:54.341414+00:00",
        "meta_object_name": "COSMOS 2584 (704K)",
        "meta_object_id": "2025-042A",
        "meta_epoch": "2025-11-26T10:06:10.904256",
        "meta_mean_motion": 2.13103062,
        "meta_eccentricity": 0.00075218,
        "meta_inclination": 64.9668,
        "meta_ra_of_asc_node": 79.7019,
        "meta_arg_of_pericenter": 212.3772,
        "meta_mean_anomaly": 147.585,
        "meta_ephemeris_type": 0,
        "meta_classification_type": "U",
        "meta_norad_cat_id": 63130,
        "meta_element_set_no": 999,
        "meta_rev_at_epoch": 572,
        "meta_bstar": 0,
        "meta_mean_motion_dot": 1.8e-07,
        "meta_mean_motion_ddot": 0,
        "tle_line1": "1 63130U 25042A   25330.42095954  .00000018  00000+0  00000+0 0  9994",
        "tle_line2": "2 63130  64.9668  79.7019 0007521 212.3772 147.5850  2.13103062  5728"
      },
      "geometry": {
        "type": "Point",
        "coordinates": [
          -92.10775763166922,
          -17.522879949185068
        ]
      }
    }
  ]
}